NETSAT-1                
1 46506U 20068W   26158.54982942  .00013319  00000+0  40179-3 0  9992
2 46506  97.8751 158.6913 0006106  59.3065 300.8777 15.34413603313823
NETSAT-2                
1 46507U 20068X   26158.26069587  .00022906  00000+0  47758-3 0  9995
2 46507  97.8622 165.5652 0004765  53.4495 306.7190 15.45571255314206
TIANQI-6                
1 46810U 20076D   26158.53292111  .00004235  00000+0  27770-3 0  9999
2 46810  34.9983 107.7121 0009201  83.9453 276.2305 15.07118367307127
KSM1-C                  
1 46906U 20081B   26158.80741676  .00011059  00000+0  41583-3 0  9996
2 46906  36.8941 116.8429 0001374 195.6180 164.4527 15.26586404307734
KSM1-D                  
1 46907U 20081C   26158.86222318  .00009994  00000+0  39937-3 0  9995
2 46907  36.8955 125.3342 0004022 203.5165 156.5400 15.24592443307677
KSM1-A                  
1 46912U 20081H   26158.87128179  .00009565  00000+0  36866-3 0  9994
2 46912  36.8952 118.7735 0004580 249.1310 110.8949 15.25812617307758
R2                      
1 46913U 20081J   26152.08134849  .00008820  00000+0  34667-3 0  9993
2 46913  36.8961 160.5241 0006826 158.1099 201.9942 15.25182244309522
KSM1-B                  
1 46914U 20081K   26158.60239405  .00007049  00000+0  28472-3 0  9991
2 46914  36.9009 127.5146 0006209 214.6826 145.3519 15.24375737310720
GONETS-M 20             
1 47227U 20091A   26158.82940442  .00000036  00000+0  18857-3 0  9999
2 47227  82.5045 308.2541 0020757 198.3228 161.7106 12.42893284249915
GONETS-M 21             
1 47228U 20091B   26158.88371882  .00000093  00000+0  59758-3 0  9990
2 47228  82.4969 306.9329 0014339 211.5850 148.4370 12.42886467249917
GONETS-M 22             
1 47229U 20091C   26158.85685547  .00000096  00000+0  62093-3 0  9993
2 47229  82.5028 307.8440 0021684 193.6565 166.3931 12.42892597249860
CUBEL                   
1 47448U 21006AM  26158.68169395  .00010733  00000+0  26317-3 0  9990
2 47448  97.2339 209.3574 0006246 192.4790 167.6303 15.40875191298299
ARKTIKA-M 1             
1 47719U 21016A   26153.03917935 -.00000200  00000+0  00000+0 0  9993
2 47719  63.2379  59.8266 7283239 269.8643  14.6915  2.00628509 38489
STARLINK-2342           
1 47883U 21021Z   26158.83337963  .00108883  00000+0  66689-3 0  9995
2 47883  53.1550 194.8588 0001646  69.0458  59.3617 15.76519245  5925
GRUS-1B                 
1 47934U 21022C   26158.83123359  .00002358  00000+0  19897-3 0  9994
2 47934  97.5403  42.3357 0016430   1.6441 358.4834 14.98975219284498
UNISAT-7                
1 47945U 21022P   26158.67486374  .00014735  00000+0  36784-3 0  9993
2 47945  97.3896  63.5011 0011181 106.1482 254.0995 15.40212279288390
GLOBAL-9                
1 47971U 21023G   26158.11176179  .00024138  00000+0  48586-3 0  9992
2 47971  44.9822 307.1421 0005324 267.1499  92.8782 15.46210962293386
AII-BRAVO               
1 48270U 21034C   26158.70352406  .00005749  00000+0  42694-3 0  9992
2 48270  97.5614 213.8292 0004872 301.3241  58.7508 15.03403995278196
TYVAK-182A              
1 48271U 21034D   26158.69686226  .00005799  00000+0  40091-3 0  9995
2 48271  97.5730 217.7794 0006024  19.9258 340.2204 15.06085730278409
CSS (TIANHE)            
1 48274U 21035A   26158.82587541  .00021860  00000+0  26156-3 0  9997
2 48274  41.4695  18.9562 0008815   3.9796 356.1111 15.60412503291707
TYVAK-0130              
1 48606U 21041BF  26158.49263887  .00008882  00000+0  33846-3 0  9993
2 48606  52.9966  71.1035 0011031 134.2788 225.9116 15.27434999278904
HAIYANG-2D              
1 48621U 21043A   26158.82186953  .00000018  00000+0  90024-4 0  9992
2 48621  66.0000 328.0164 0011376 270.2772  89.6992 13.83375403255253
2021-050D               
1 48843U 21050D   26158.87631713  .00005637  00000+0  24091-3 0  9992
2 48843  97.3331 235.1247 0004243 309.0834  51.0025 15.23238534277543
TYVAK-0173              
1 48892U 21059P   26158.74423713  .00002131  00000+0  27338-3 0  9993
2 48892  96.0082 237.4482 0010843  67.6261 292.6105 14.81861305266840
MANDRAKE 2 ABLE         
1 48907U 21059AE  26158.84194470  .00021574  00000+0  32741-3 0  9992
2 48907  97.7043 347.9162 0005239  40.0422 320.1217 15.54612943275676
MANDRAKE 2 BAKER        
1 48908U 21059AF  26158.80066910  .00028283  00000+0  36320-3 0  9997
2 48908  97.7014 350.6789 0003698  40.7780 319.3751 15.59083753275839
PACE-1                  
1 48909U 21059AG  26158.52168618  .00083905  00000+0  48853-3 0  9991
2 48909  97.6789 355.5841 0000709 349.1432  10.9818 15.78217926276270
YAM-3                   
1 48915U 21059AN  26158.50308203  .00012463  00000+0  23737-3 0  9997
2 48915  97.6995 344.8276 0005863  43.5236 316.6476 15.48339704275497
FARADAY_PHOENIX         
1 48924U 21059AX  26158.50923021  .00122007  00000+0  77821-3 0  9997
2 48924  97.6827 355.4789 0002655 359.8584   0.2679 15.76029333276131
