OBJECT_NAME,OBJECT_ID,EPOCH,MEAN_MOTION,ECCENTRICITY,INCLINATION,RA_OF_ASC_NODE,ARG_OF_PERICENTER,MEAN_ANOMALY,EPHEMERIS_TYPE,CLASSIFICATION_TYPE,NORAD_CAT_ID,ELEMENT_SET_NO,REV_AT_EPOCH,BSTAR,MEAN_MOTION_DOT,MEAN_MOTION_DDOT
NETSAT-1,2020-068W,2026-06-07T13:11:45.261888,15.34413603,.0006106,97.8751,158.6913,59.3065,300.8777,0,U,46506,999,31382,.40179E-3,.13319E-3,0
NETSAT-2,2020-068X,2026-06-07T06:15:24.123168,15.45571255,.0004765,97.8622,165.5652,53.4495,306.7190,0,U,46507,999,31420,.47758E-3,.22906E-3,0
TIANQI-6,2020-076D,2026-06-07T12:47:24.383904,15.07118367,.0009201,34.9983,107.7121,83.9453,276.2305,0,U,46810,999,30712,.2777E-3,.4235E-4,0
KSM1-C,2020-081B,2026-06-07T19:22:40.808064,15.26586404,.0001374,36.8941,116.8429,195.6180,164.4527,0,U,46906,999,30773,.41583E-3,.11059E-3,0
KSM1-D,2020-081C,2026-06-07T20:41:36.082752,15.24592443,.0004022,36.8955,125.3342,203.5165,156.5400,0,U,46907,999,30767,.39937E-3,.9994E-4,0
KSM1-A,2020-081H,2026-06-07T20:54:38.746656,15.25812617,.000458,36.8952,118.7735,249.1310,110.8949,0,U,46912,999,30775,.36866E-3,.9565E-4,0
R2,2020-081J,2026-06-01T01:57:08.509536,15.25182244,.00068263,36.8961,160.5241,158.1099,201.9942,0,U,46913,999,30952,.346666E-3,.882E-4,0
KSM1-B,2020-081K,2026-06-07T14:27:26.845920,15.24375737,.0006209,36.9009,127.5146,214.6826,145.3519,0,U,46914,999,31072,.28472E-3,.7049E-4,0
GONETS-M 20,2020-091A,2026-06-07T19:54:20.541888,12.42893284,.0020757,82.5045,308.2541,198.3228,161.7106,0,U,47227,999,24991,.18857E-3,.36E-6,0
GONETS-M 21,2020-091B,2026-06-07T21:12:33.306048,12.42886467,.0014339,82.4969,306.9329,211.5850,148.4370,0,U,47228,999,24991,.59758E-3,.93E-6,0
GONETS-M 22,2020-091C,2026-06-07T20:33:52.312608,12.42892597,.0021684,82.5028,307.8440,193.6565,166.3931,0,U,47229,999,24986,.62093E-3,.96E-6,0
CUBEL,2021-006AM,2026-06-07T16:21:38.357280,15.40875191,.0006246,97.2339,209.3574,192.4790,167.6303,0,U,47448,999,29829,.26317E-3,.10733E-3,0
ARKTIKA-M 1,2021-016A,2026-06-02T00:56:25.095840,2.00628509,.72832396,63.2379,59.8266,269.8643,14.6915,0,U,47719,999,3848,0,-.2E-5,0
STARLINK-2342,2021-021Z,2026-06-07T20:00:04.000032,15.76519245,.0001646,53.1550,194.8588,69.0458,59.3617,0,U,47883,999,592,.66689E-3,.108883E-2,0
GRUS-1B,2021-022C,2026-06-07T19:56:58.582176,14.98975219,.001643,97.5403,42.3357,1.6441,358.4834,0,U,47934,999,28449,.19897E-3,.2358E-4,0
UNISAT-7,2021-022P,2026-06-07T16:11:48.227136,15.40212279,.0011181,97.3896,63.5011,106.1482,254.0995,0,U,47945,999,28839,.36784E-3,.14735E-3,0
GLOBAL-9,2021-023G,2026-06-07T02:40:56.218656,15.46210962,.0005324,44.9822,307.1421,267.1499,92.8782,0,U,47971,999,29338,.48586E-3,.24138E-3,0
AII-BRAVO,2021-034C,2026-06-07T16:53:04.478784,15.03403995,.0004872,97.5614,213.8292,301.3241,58.7508,0,U,48270,999,27819,.42694E-3,.5749E-4,0
TYVAK-182A,2021-034D,2026-06-07T16:43:28.899264,15.06085730,.0006024,97.5730,217.7794,19.9258,340.2204,0,U,48271,999,27840,.40091E-3,.5799E-4,0
CSS (TIANHE),2021-035A,2026-06-07T19:49:15.635424,15.60412503,.0008815,41.4695,18.9562,3.9796,356.1111,0,U,48274,999,29170,.26156E-3,.2186E-3,0
TYVAK-0130,2021-041BF,2026-06-07T11:49:23.998368,15.27434999,.0011031,52.9966,71.1035,134.2788,225.9116,0,U,48606,999,27890,.33846E-3,.8882E-4,0
HAIYANG-2D,2021-043A,2026-06-07T19:43:29.527392,13.83375403,.0011376,66.0000,328.0164,270.2772,89.6992,0,U,48621,999,25525,.90024E-4,.18E-6,0
2021-050D,2021-050D,2026-06-07T21:01:53.800032,15.23238534,.0004243,97.3331,235.1247,309.0834,51.0025,0,U,48843,999,27754,.24091E-3,.5637E-4,0
TYVAK-0173,2021-059P,2026-06-07T17:51:42.088032,14.81861305,.0010843,96.0082,237.4482,67.6261,292.6105,0,U,48892,999,26684,.27338E-3,.2131E-4,0
MANDRAKE 2 ABLE,2021-059AE,2026-06-07T20:12:24.022080,15.54612943,.0005239,97.7043,347.9162,40.0422,320.1217,0,U,48907,999,27567,.32741E-3,.21574E-3,0
MANDRAKE 2 BAKER,2021-059AF,2026-06-07T19:12:57.810240,15.59083753,.0003698,97.7014,350.6789,40.7780,319.3751,0,U,48908,999,27583,.3632E-3,.28283E-3,0
PACE-1,2021-059AG,2026-06-07T12:31:13.685952,15.78217926,.0000709,97.6789,355.5841,349.1432,10.9818,0,U,48909,999,27627,.48853E-3,.83905E-3,0
YAM-3,2021-059AN,2026-06-07T12:04:26.287392,15.48339704,.0005863,97.6995,344.8276,43.5236,316.6476,0,U,48915,999,27549,.23737E-3,.12463E-3,0
FARADAY_PHOENIX,2021-059AX,2026-06-07T12:13:17.490144,15.76029333,.0002655,97.6827,355.4789,359.8584,0.2679,0,U,48924,999,27613,.77821E-3,.122007E-2,0
